[{"OBJECT_NAME":"OBJECT H","OBJECT_ID":"2023-091H","EPOCH":"2026-03-09T22:34:46.487712","MEAN_MOTION":15.26380881,"ECCENTRICITY":0.00117854,"INCLINATION":97.5166,"RA_OF_ASC_NODE":131.4381,"ARG_OF_PERICENTER":104.1062,"MEAN_ANOMALY":256.1487,"EPHEMERIS_TYPE":0,"CLASSIFICATION_TYPE":"U","NORAD_CAT_ID":57173,"ELEMENT_SET_NO":999,"REV_AT_EPOCH":14915,"BSTAR":0.00056321781,"MEAN_MOTION_DOT":0.00014617,"MEAN_MOTION_DDOT":0},{"OBJECT_NAME":"STARLINK-31563","OBJECT_ID":"2024-045N","EPOCH":"2026-03-09T10:15:36.072576","MEAN_MOTION":15.27602366,"ECCENTRICITY":0.00018301,"INCLINATION":43.004,"RA_OF_ASC_NODE":93.8225,"ARG_OF_PERICENTER":260.4348,"MEAN_ANOMALY":99.6297,"EPHEMERIS_TYPE":0,"CLASSIFICATION_TYPE":"U","NORAD_CAT_ID":59190,"ELEMENT_SET_NO":999,"REV_AT_EPOCH":11312,"BSTAR":-0.00020698297,"MEAN_MOTION_DOT":-5.958e-5,"MEAN_MOTION_DDOT":0}]
